{"type": "FeatureCollection", "features": [ {"type": "Feature", "properties": {"norad_id": 34340, "name": "COSMOS 2251 DEB", "group": "cosmos-2251-debris", "lat": -23.543225748124836, "lon": 110.98742059238488, "alt_km": 1178.6787824411858, "timestamp": "2025-12-27T04:40:45.899025+00:00", "meta": {"OBJECT_NAME": "COSMOS 2251 DEB", "OBJECT_ID": "1993-036PN", "EPOCH": "2025-12-26T21:02:33.670176", "MEAN_MOTION": 13.79634126, "ECCENTRICITY": 0.02844886, "INCLINATION": 74.079, "RA_OF_ASC_NODE": 284.3747, "ARG_OF_PERICENTER": 28.8984, "MEAN_ANOMALY": 35.537, "EPHEMERIS_TYPE": 0, "CLASSIFICATION_TYPE": "U", "NORAD_CAT_ID": 34340, "ELEMENT_SET_NO": 999, "REV_AT_EPOCH": 84463, "BSTAR": 0.001891749, "MEAN_MOTION_DOT": 2.624e-05, "MEAN_MOTION_DDOT": 0}, "tle": {"line1": "1 34340U 93036PN  25360.87677859  .00002624  00000+0  18917-2 0  9999", "line2": "2 34340  74.0790 284.3747 0284488  28.8984  35.5370 13.79634126844631"}}, "geometry": {"type": "Point", "coordinates": [110.98742059238488, -23.543225748124836]}}, {"type": "Feature", "properties": {"norad_id": 34343, "name": "COSMOS 2251 DEB", "group": "cosmos-2251-debris", "lat": -73.62421466877866, "lon": -15.685306883451007, "alt_km": 660.0432125481211, "timestamp": "2025-12-27T04:40:45.899035+00:00", "meta": {"OBJECT_NAME": "COSMOS 2251 DEB", "OBJECT_ID": "1993-036PR", "EPOCH": "2025-12-26T21:25:53.154912", "MEAN_MOTION": 14.69654636, "ECCENTRICITY": 0.00246147, "INCLINATION": 74.0199, "RA_OF_ASC_NODE": 62.1057, "ARG_OF_PERICENTER": 332.8287, "MEAN_ANOMALY": 143.8532, "EPHEMERIS_TYPE": 0, "CLASSIFICATION_TYPE": "U", "NORAD_CAT_ID": 34343, "ELEMENT_SET_NO": 999, "REV_AT_EPOCH": 88938, "BSTAR": 0.001587005, "MEAN_MOTION_DOT": 9.468e-05, "MEAN_MOTION_DDOT": 0}, "tle": {"line1": "1 34343U 93036PR  25360.89297633  .00009468  00000+0  15870-2 0  9990", "line2": "2 34343  74.0199  62.1057 0024614 332.8287 143.8532 14.69654636889382"}}, "geometry": {"type": "Point", "coordinates": [-15.685306883451007, -73.62421466877866]}}, {"type": "Feature", "properties": {"norad_id": 34344, "name": "COSMOS 2251 DEB", "group": "cosmos-2251-debris", "lat": 43.81698324638648, "lon": -111.46565712863097, "alt_km": 908.2302291043143, "timestamp": "2025-12-27T04:40:45.899045+00:00", "meta": {"OBJECT_NAME": "COSMOS 2251 DEB", "OBJECT_ID": "1993-036PS", "EPOCH": "2025-12-26T12:51:31.646880", "MEAN_MOTION": 14.16520724, "ECCENTRICITY": 0.0157506, "INCLINATION": 73.9773, "RA_OF_ASC_NODE": 85.7163, "ARG_OF_PERICENTER": 267.2362, "MEAN_ANOMALY": 107.7342, "EPHEMERIS_TYPE": 0, "CLASSIFICATION_TYPE": "U", "NORAD_CAT_ID": 34344, "ELEMENT_SET_NO": 999, "REV_AT_EPOCH": 86292, "BSTAR": 0.0019849, "MEAN_MOTION_DOT": 4.438e-05, "MEAN_MOTION_DDOT": 0}, "tle": {"line1": "1 34344U 93036PS  25360.53578295  .00004438  00000+0  19849-2 0  9990", "line2": "2 34344  73.9773  85.7163 0157506 267.2362 107.7342 14.16520724862921"}}, "geometry": {"type": "Point", "coordinates": [-111.46565712863097, 43.81698324638648]}}, {"type": "Feature", "properties": {"norad_id": 34346, "name": "COSMOS 2251 DEB", "group": "cosmos-2251-debris", "lat": 72.78655085800006, "lon": 39.27191972010995, "alt_km": 738.159492875855, "timestamp": "2025-12-27T04:40:45.899055+00:00", "meta": {"OBJECT_NAME": "COSMOS 2251 DEB", "OBJECT_ID": "1993-036PU", "EPOCH": "2025-12-26T21:40:22.764000", "MEAN_MOTION": 13.99741085, "ECCENTRICITY": 0.02062678, "INCLINATION": 73.9945, "RA_OF_ASC_NODE": 287.6694, "ARG_OF_PERICENTER": 103.1858, "MEAN_ANOMALY": 322.9427, "EPHEMERIS_TYPE": 0, "CLASSIFICATION_TYPE": "U", "NORAD_CAT_ID": 34346, "ELEMENT_SET_NO": 999, "REV_AT_EPOCH": 85608, "BSTAR": 0.0011669078, "MEAN_MOTION_DOT": 2.031e-05, "MEAN_MOTION_DDOT": 0}, "tle": {"line1": "1 34346U 93036PU  25360.90304125  .00002031  00000+0  11669-2 0  9991", "line2": "2 34346  73.9945 287.6694 0206267 103.1858 322.9427 13.99741085856083"}}, "geometry": {"type": "Point", "coordinates": [39.27191972010995, 72.78655085800006]}}, {"type": "Feature", "properties": {"norad_id": 34383, "name": "COSMOS 2251 DEB", "group": "cosmos-2251-debris", "lat": -64.23727448585184, "lon": 124.2792286575291, "alt_km": 543.5282959458982, "timestamp": "2025-12-27T04:40:45.899065+00:00", "meta": {"OBJECT_NAME": "COSMOS 2251 DEB", "OBJECT_ID": "1993-036PY", "EPOCH": "2025-12-26T19:55:07.769856", "MEAN_MOTION": 15.1037423, "ECCENTRICITY": 0.00028922, "INCLINATION": 74.0202, "RA_OF_ASC_NODE": 268.6087, "ARG_OF_PERICENTER": 40.8189, "MEAN_ANOMALY": 24.7398, "EPHEMERIS_TYPE": 0, "CLASSIFICATION_TYPE": "U", "NORAD_CAT_ID": 34383, "ELEMENT_SET_NO": 999, "REV_AT_EPOCH": 89326, "BSTAR": 0.0035858803, "MEAN_MOTION_DOT": 0.00059342, "MEAN_MOTION_DDOT": 0}, "tle": {"line1": "1 34383U 93036PY  25360.82995104  .00059342  00000+0  35859-2 0  9990", "line2": "2 34383  74.0202 268.6087 0002892  40.8189  24.7398 15.10374230893263"}}, "geometry": {"type": "Point", "coordinates": [124.2792286575291, -64.23727448585184]}}, {"type": "Feature", "properties": {"norad_id": 34387, "name": "COSMOS 2251 DEB", "group": "cosmos-2251-debris", "lat": 4.556770302896277, "lon": -173.66565904862455, "alt_km": 745.5319795545201, "timestamp": "2025-12-27T04:40:45.899076+00:00", "meta": {"OBJECT_NAME": "COSMOS 2251 DEB", "OBJECT_ID": "1993-036QC", "EPOCH": "2025-12-26T12:10:12.207072", "MEAN_MOTION": 14.43849863, "ECCENTRICITY": 0.0038902, "INCLINATION": 74.0384, "RA_OF_ASC_NODE": 186.3056, "ARG_OF_PERICENTER": 280.7918, "MEAN_ANOMALY": 109.5099, "EPHEMERIS_TYPE": 0, "CLASSIFICATION_TYPE": "U", "NORAD_CAT_ID": 34387, "ELEMENT_SET_NO": 999, "REV_AT_EPOCH": 88380, "BSTAR": 0.00032075, "MEAN_MOTION_DOT": 1.076e-05, "MEAN_MOTION_DDOT": 0}, "tle": {"line1": "1 34387U 93036QC  25360.50708573  .00001076  00000+0  32075-3 0  9990", "line2": "2 34387  74.0384 186.3056 0038902 280.7918 109.5099 14.43849863883809"}}, "geometry": {"type": "Point", "coordinates": [-173.66565904862455, 4.556770302896277]}}, {"type": "Feature", "properties": {"norad_id": 34388, "name": "COSMOS 2251 DEB", "group": "cosmos-2251-debris", "lat": -72.88212702133777, "lon": 127.66098923898349, "alt_km": 726.3455974076014, "timestamp": "2025-12-27T04:40:45.899159+00:00", "meta": {"OBJECT_NAME": "COSMOS 2251 DEB", "OBJECT_ID": "1993-036QD", "EPOCH": "2025-12-26T21:03:55.077984", "MEAN_MOTION": 14.49432634, "ECCENTRICITY": 0.0013584, "INCLINATION": 74.0378, "RA_OF_ASC_NODE": 196.5876, "ARG_OF_PERICENTER": 243.9719, "MEAN_ANOMALY": 177.4472, "EPHEMERIS_TYPE": 0, "CLASSIFICATION_TYPE": "U", "NORAD_CAT_ID": 34388, "ELEMENT_SET_NO": 999, "REV_AT_EPOCH": 88360, "BSTAR": 0.00077433713, "MEAN_MOTION_DOT": 2.94e-05, "MEAN_MOTION_DDOT": 0}, "tle": {"line1": "1 34388U 93036QD  25360.87772081  .00002940  00000+0  77434-3 0  9995", "line2": "2 34388  74.0378 196.5876 0013584 243.9719 177.4472 14.49432634883602"}}, "geometry": {"type": "Point", "coordinates": [127.66098923898349, -72.88212702133777]}}, {"type": "Feature", "properties": {"norad_id": 34389, "name": "COSMOS 2251 DEB", "group": "cosmos-2251-debris", "lat": -64.81869472880201, "lon": 80.57025386922056, "alt_km": 757.191349902816, "timestamp": "2025-12-27T04:40:45.899173+00:00", "meta": {"OBJECT_NAME": "COSMOS 2251 DEB", "OBJECT_ID": "1993-036QE", "EPOCH": "2025-12-26T17:50:07.367712", "MEAN_MOTION": 14.41563956, "ECCENTRICITY": 0.00295087, "INCLINATION": 74.017, "RA_OF_ASC_NODE": 223.8477, "ARG_OF_PERICENTER": 333.1475, "MEAN_ANOMALY": 93.5228, "EPHEMERIS_TYPE": 0, "CLASSIFICATION_TYPE": "U", "NORAD_CAT_ID": 34389, "ELEMENT_SET_NO": 999, "REV_AT_EPOCH": 88214, "BSTAR": 0.00032149365, "MEAN_MOTION_DOT": 1.024e-05, "MEAN_MOTION_DDOT": 0}, "tle": {"line1": "1 34389U 93036QE  25360.74314083  .00001024  00000+0  32149-3 0  9992", "line2": "2 34389  74.0170 223.8477 0029508 333.1475  93.5228 14.41563956882147"}}, "geometry": {"type": "Point", "coordinates": [80.57025386922056, -64.81869472880201]}}, {"type": "Feature", "properties": {"norad_id": 34396, "name": "COSMOS 2251 DEB", "group": "cosmos-2251-debris", "lat": 73.682617379299, "lon": -162.24357623300352, "alt_km": 635.9144216961931, "timestamp": "2025-12-27T04:40:45.899184+00:00", "meta": {"OBJECT_NAME": "COSMOS 2251 DEB", "OBJECT_ID": "1993-036QM", "EPOCH": "2025-12-26T07:12:21.483360", "MEAN_MOTION": 14.74772436, "ECCENTRICITY": 0.0004354, "INCLINATION": 74.029, "RA_OF_ASC_NODE": 97.5391, "ARG_OF_PERICENTER": 131.2453, "MEAN_ANOMALY": 253.7887, "EPHEMERIS_TYPE": 0, "CLASSIFICATION_TYPE": "U", "NORAD_CAT_ID": 34396, "ELEMENT_SET_NO": 999, "REV_AT_EPOCH": 88546, "BSTAR": 0.0020344, "MEAN_MOTION_DOT": 0.00013612, "MEAN_MOTION_DDOT": 0}, "tle": {"line1": "1 34396U 93036QM  25360.30024865  .00013612  00000+0  20344-2 0  9997", "line2": "2 34396  74.0290  97.5391 0004354 131.2453 253.7887 14.74772436885464"}}, "geometry": {"type": "Point", "coordinates": [-162.24357623300352, 73.682617379299]}}, {"type": "Feature", "properties": {"norad_id": 34400, "name": "COSMOS 2251 DEB", "group": "cosmos-2251-debris", "lat": 27.3224773305848, "lon": -0.2733115156659713, "alt_km": 386.922953743323, "timestamp": "2025-12-27T04:40:45.899195+00:00", "meta": {"OBJECT_NAME": "COSMOS 2251 DEB", "OBJECT_ID": "1993-036QR", "EPOCH": "2025-12-26T00:51:22.561920", "MEAN_MOTION": 15.59867989, "ECCENTRICITY": 0.00031289, "INCLINATION": 73.9625, "RA_OF_ASC_NODE": 353.7728, "ARG_OF_PERICENTER": 197.7837, "MEAN_ANOMALY": 162.3272, "EPHEMERIS_TYPE": 0, "CLASSIFICATION_TYPE": "U", "NORAD_CAT_ID": 34400, "ELEMENT_SET_NO": 999, "REV_AT_EPOCH": 90181, "BSTAR": 0.0034840418, "MEAN_MOTION_DOT": 0.00290612, "MEAN_MOTION_DDOT": 0}, "tle": {"line1": "1 34400U 93036QR  25360.03567780  .00290612  00000+0  34840-2 0  9994", "line2": "2 34400  73.9625 353.7728 0003128 197.7837 162.3272 15.59867989901815"}}, "geometry": {"type": "Point", "coordinates": [-0.2733115156659713, 27.3224773305848]}}]}